{
 "generated_at": "2026-07-14T07:10:30Z",
 "sources": [
  {
   "name": "CelesTrak",
   "url": "https://celestrak.org/NORAD/elements/",
   "license": "frei verfügbar; Attribution. Ursprünglich USSPACECOM/Space-Track."
  },
  {
   "name": "GCAT (J. McDowell, planet4589.org)",
   "url": "https://planet4589.org/space/gcat/",
   "license": "CC-BY 4.0"
  }
 ],
 "satellites": [
  {
   "norad": 47932,
   "name": "CAS500-1",
   "intl": "2021-022A",
   "group": "resource",
   "gcat": {
    "class": "C",
    "category": "IMG",
    "owner": "KARI",
    "state": "KR"
   },
   "omm": {
    "OBJECT_NAME": "CAS500-1",
    "OBJECT_ID": "2021-022A",
    "EPOCH": "2026-07-13T20:29:13.728768",
    "MEAN_MOTION": 15.20173523,
    "ECCENTRICITY": 0.0005076,
    "INCLINATION": 97.3872,
    "RA_OF_ASC_NODE": 89.5633,
    "ARG_OF_PERICENTER": 172.7994,
    "MEAN_ANOMALY": 187.3316,
    "EPHEMERIS_TYPE": 0,
    "CLASSIFICATION_TYPE": "U",
    "NORAD_CAT_ID": 47932,
    "ELEMENT_SET_NO": 999,
    "REV_AT_EPOCH": 29481,
    "BSTAR": 0.00016783,
    "MEAN_MOTION_DOT": 0.00003566,
    "MEAN_MOTION_DDOT": 0
   }
  },
  {
   "norad": 69013,
   "name": "CAS500-2",
   "intl": "2026-100AK",
   "group": "resource",
   "gcat": {
    "class": "C",
    "category": "TECH",
    "owner": "KAIST",
    "state": "KR"
   },
   "omm": {
    "OBJECT_NAME": "CAS500-2",
    "OBJECT_ID": "2026-100AK",
    "EPOCH": "2026-07-13T16:03:46.072800",
    "MEAN_MOTION": 15.20891192,
    "ECCENTRICITY": 0.0007871,
    "INCLINATION": 97.3873,
    "RA_OF_ASC_NODE": 92.0228,
    "ARG_OF_PERICENTER": 298.6467,
    "MEAN_ANOMALY": 61.3977,
    "EPHEMERIS_TYPE": 0,
    "CLASSIFICATION_TYPE": "U",
    "NORAD_CAT_ID": 69013,
    "ELEMENT_SET_NO": 999,
    "REV_AT_EPOCH": 1083,
    "BSTAR": 0.00016776,
    "MEAN_MOTION_DOT": 0.00003642,
    "MEAN_MOTION_DDOT": 0
   }
  },
  {
   "norad": 66655,
   "name": "CAS500-3",
   "intl": "2025-274F",
   "group": "resource",
   "gcat": {
    "class": "B",
    "category": "IMG",
    "owner": "KAIST",
    "state": "KR"
   },
   "omm": {
    "OBJECT_NAME": "CAS500-3",
    "OBJECT_ID": "2025-274F",
    "EPOCH": "2026-07-13T18:30:14.702400",
    "MEAN_MOTION": 14.88381724,
    "ECCENTRICITY": 0.0006323,
    "INCLINATION": 97.7437,
    "RA_OF_ASC_NODE": 122.2175,
    "ARG_OF_PERICENTER": 42.0337,
    "MEAN_ANOMALY": 318.1364,
    "EPHEMERIS_TYPE": 0,
    "CLASSIFICATION_TYPE": "U",
    "NORAD_CAT_ID": 66655,
    "ELEMENT_SET_NO": 999,
    "REV_AT_EPOCH": 3410,
    "BSTAR": 0.000070482,
    "MEAN_MOTION_DOT": 0.00000599,
    "MEAN_MOTION_DDOT": 0
   }
  },
  {
   "norad": 40336,
   "name": "CBERS 4",
   "intl": "2014-079A",
   "group": "resource",
   "gcat": {
    "class": "C",
    "category": "IMG",
    "owner": "ZZWYZ/INPE",
    "state": "CN"
   },
   "omm": {
    "OBJECT_NAME": "CBERS 4",
    "OBJECT_ID": "2014-079A",
    "EPOCH": "2026-07-13T20:56:14.872704",
    "MEAN_MOTION": 14.35515011,
    "ECCENTRICITY": 0.0000857,
    "INCLINATION": 98.3526,
    "RA_OF_ASC_NODE": 250.8647,
    "ARG_OF_PERICENTER": 51.7624,
    "MEAN_ANOMALY": 308.3639,
    "EPHEMERIS_TYPE": 0,
    "CLASSIFICATION_TYPE": "U",
    "NORAD_CAT_ID": 40336,
    "ELEMENT_SET_NO": 999,
    "REV_AT_EPOCH": 60778,
    "BSTAR": -0.000030863,
    "MEAN_MOTION_DOT": -0.00000131,
    "MEAN_MOTION_DDOT": 0
   }
  },
  {
   "norad": 64903,
   "name": "CO3D 1",
   "intl": "2025-156E",
   "group": "resource",
   "gcat": {
    "class": "C",
    "category": "SCI",
    "owner": "CNES",
    "state": "F"
   },
   "omm": {
    "OBJECT_NAME": "CO3D 1",
    "OBJECT_ID": "2025-156E",
    "EPOCH": "2026-07-13T19:30:27.974592",
    "MEAN_MOTION": 15.20194788,
    "ECCENTRICITY": 0.0001276,
    "INCLINATION": 97.4337,
    "RA_OF_ASC_NODE": 273.0218,
    "ARG_OF_PERICENTER": 99.6518,
    "MEAN_ANOMALY": 260.4861,
    "EPHEMERIS_TYPE": 0,
    "CLASSIFICATION_TYPE": "U",
    "NORAD_CAT_ID": 64903,
    "ELEMENT_SET_NO": 999,
    "REV_AT_EPOCH": 5357,
    "BSTAR": 0.00011644,
    "MEAN_MOTION_DOT": 0.00002453,
    "MEAN_MOTION_DDOT": 0
   }
  },
  {
   "norad": 64902,
   "name": "CO3D 2",
   "intl": "2025-156D",
   "group": "resource",
   "gcat": {
    "class": "C",
    "category": "SCI",
    "owner": "CNES",
    "state": "F"
   },
   "omm": {
    "OBJECT_NAME": "CO3D 2",
    "OBJECT_ID": "2025-156D",
    "EPOCH": "2026-07-13T19:30:14.707008",
    "MEAN_MOTION": 15.20194985,
    "ECCENTRICITY": 0.0001252,
    "INCLINATION": 97.4338,
    "RA_OF_ASC_NODE": 273.0215,
    "ARG_OF_PERICENTER": 87.6192,
    "MEAN_ANOMALY": 272.5187,
    "EPHEMERIS_TYPE": 0,
    "CLASSIFICATION_TYPE": "U",
    "NORAD_CAT_ID": 64902,
    "ELEMENT_SET_NO": 999,
    "REV_AT_EPOCH": 5357,
    "BSTAR": 0.00010966,
    "MEAN_MOTION_DOT": 0.00002307,
    "MEAN_MOTION_DDOT": 0
   }
  },
  {
   "norad": 64900,
   "name": "CO3D 3",
   "intl": "2025-156B",
   "group": "resource",
   "gcat": {
    "class": "C",
    "category": "SCI",
    "owner": "CNES",
    "state": "F"
   },
   "omm": {
    "OBJECT_NAME": "CO3D 3",
    "OBJECT_ID": "2025-156B",
    "EPOCH": "2026-07-13T20:18:01.484064",
    "MEAN_MOTION": 15.20185668,
    "ECCENTRICITY": 0.0001792,
    "INCLINATION": 97.4339,
    "RA_OF_ASC_NODE": 273.1556,
    "ARG_OF_PERICENTER": 93.8209,
    "MEAN_ANOMALY": 266.323,
    "EPHEMERIS_TYPE": 0,
    "CLASSIFICATION_TYPE": "U",
    "NORAD_CAT_ID": 64900,
    "ELEMENT_SET_NO": 999,
    "REV_AT_EPOCH": 5358,
    "BSTAR": 0.00011803,
    "MEAN_MOTION_DOT": 0.00002487,
    "MEAN_MOTION_DDOT": 0
   }
  },
  {
   "norad": 64901,
   "name": "CO3D 4",
   "intl": "2025-156C",
   "group": "resource",
   "gcat": {
    "class": "C",
    "category": "SCI",
    "owner": "CNES",
    "state": "F"
   },
   "omm": {
    "OBJECT_NAME": "CO3D 4",
    "OBJECT_ID": "2025-156C",
    "EPOCH": "2026-07-13T20:18:15.981120",
    "MEAN_MOTION": 15.20203183,
    "ECCENTRICITY": 0.000158,
    "INCLINATION": 97.4335,
    "RA_OF_ASC_NODE": 273.1556,
    "ARG_OF_PERICENTER": 155.674,
    "MEAN_ANOMALY": 204.4569,
    "EPHEMERIS_TYPE": 0,
    "CLASSIFICATION_TYPE": "U",
    "NORAD_CAT_ID": 64901,
    "ELEMENT_SET_NO": 999,
    "REV_AT_EPOCH": 5358,
    "BSTAR": 0.000035732,
    "MEAN_MOTION_DOT": 0.00000706,
    "MEAN_MOTION_DDOT": 0
   }
  },
  {
   "norad": 36744,
   "name": "COMS 1",
   "intl": "2010-032A",
   "group": "weather",
   "gcat": {
    "class": null,
    "category": null,
    "owner": null,
    "state": null
   },
   "omm": {
    "OBJECT_NAME": "COMS 1",
    "OBJECT_ID": "2010-032A",
    "EPOCH": "2026-07-13T09:53:41.272800",
    "MEAN_MOTION": 0.99168371,
    "ECCENTRICITY": 0.00112481,
    "INCLINATION": 4.8701,
    "RA_OF_ASC_NODE": 75.0394,
    "ARG_OF_PERICENTER": 14.7012,
    "MEAN_ANOMALY": 319.115,
    "EPHEMERIS_TYPE": 0,
    "CLASSIFICATION_TYPE": "U",
    "NORAD_CAT_ID": 36744,
    "ELEMENT_SET_NO": 999,
    "REV_AT_EPOCH": 5134,
    "BSTAR": 0,
    "MEAN_MOTION_DOT": -0.00000255,
    "MEAN_MOTION_DDOT": 0
   }
  },
  {
   "norad": 31598,
   "name": "COSMO-SKYMED 1",
   "intl": "2007-023A",
   "group": "resource",
   "gcat": {
    "class": "D",
    "category": "IMG-R",
    "owner": "ASI",
    "state": "I"
   },
   "omm": {
    "OBJECT_NAME": "COSMO-SKYMED 1",
    "OBJECT_ID": "2007-023A",
    "EPOCH": "2026-07-13T19:14:44.650752",
    "MEAN_MOTION": 14.97215122,
    "ECCENTRICITY": 0.0001309,
    "INCLINATION": 97.8844,
    "RA_OF_ASC_NODE": 26.8829,
    "ARG_OF_PERICENTER": 103.8934,
    "MEAN_ANOMALY": 256.2433,
    "EPHEMERIS_TYPE": 0,
    "CLASSIFICATION_TYPE": "U",
    "NORAD_CAT_ID": 31598,
    "ELEMENT_SET_NO": 999,
    "REV_AT_EPOCH": 3377,
    "BSTAR": 0.00011993,
    "MEAN_MOTION_DOT": 0.00001327,
    "MEAN_MOTION_DDOT": 0
   }
  }
 ]
}
