COSMO-SKYMED 1          
1 31598U 07023A   26194.80190568  .00001327  00000+0  11993-3 0  9995
2 31598  97.8844  26.8829 0001309 103.8934 256.2433 14.97215122 33773
COMS 1                  
1 36744U 10032A   26194.41228325 -.00000255  00000+0  00000+0 0  9990
2 36744   4.8701  75.0394 0011248  14.7012 319.1150  0.99168371 51342
CBERS 4                 
1 40336U 14079A   26194.87239436 -.00000131  00000+0 -30863-4 0  9991
2 40336  98.3526 250.8647 0000857  51.7624 308.3639 14.35515011607784
CAS500-1                
1 47932U 21022A   26194.85363112  .00003566  00000+0  16783-3 0  9990
2 47932  97.3872  89.5633 0005076 172.7994 187.3316 15.20173523294816
CO3D 3                  
1 64900U 25156B   26194.84585051  .00002487  00000+0  11803-3 0  9992
2 64900  97.4339 273.1556 0001792  93.8209 266.3230 15.20185668 53580
CO3D 4                  
1 64901U 25156C   26194.84601830  .00000706  00000+0  35732-4 0  9997
2 64901  97.4335 273.1556 0001580 155.6740 204.4569 15.20203183 53580
CO3D 2                  
1 64902U 25156D   26194.81267022  .00002307  00000+0  10966-3 0  9996
2 64902  97.4338 273.0215 0001252  87.6192 272.5187 15.20194985 53576
CO3D 1                  
1 64903U 25156E   26194.81282378  .00002453  00000+0  11644-3 0  9994
2 64903  97.4337 273.0218 0001276  99.6518 260.4861 15.20194788 53576
CAS500-3                
1 66655U 25274F   26194.77100350  .00000599  00000+0  70482-4 0  9990
2 66655  97.7437 122.2175 0006323  42.0337 318.1364 14.88381724 34100
CAS500-2                
1 69013U 26100AK  26194.66928325  .00003642  00000+0  16776-3 0  9995
2 69013  97.3873  92.0228 0007871 298.6467  61.3977 15.20891192 10839
